start=new Date('2021-10-30T00:00:00.000Z').valueOf();
sats=[{"LAUNCH_DATE":"2020-01-07","OBJECT_ID":"2020-001K","MEAN_ANOMALY":"287.1635","MEAN_MOTION":"15.06404583","OBJECT_TYPE":"PAYLOAD","PERIAPSIS":"546.235","GP_ID":"188467028","ECCENTRICITY":"0.00013930","OBJECT_NAME":"STARLINK-1106","INCLINATION":"53.0533","APOAPSIS":"548.164","MEAN_MOTION_DDOT":"0.0000000000000","TIME_SYSTEM":"UTC","MEAN_ELEMENT_THEORY":"SGP4","FILE":"3191844","REF_FRAME":"TEME","NORAD_CAT_ID":"44923","CENTER_NAME":"EARTH","RCS_SIZE":"LARGE","BSTAR":"0.00006589000000","PERIOD":"95.592","DECAY_DATE":null,"EPOCH":"2021-10-29T16:47:46.511232","CLASSIFICATION_TYPE":"U","ELEMENT_SET_NO":"999","SEMIMAJOR_AXIS":"6925.335","REV_AT_EPOCH":"9989","RA_OF_ASC_NODE":"293.3470","EPHEMERIS_TYPE":"0","SITE":"AFETR","TLE_LINE2":"2 44923  53.0533 293.3470 0001393  72.9507 287.1635 15.06404583 99890","MEAN_MOTION_DOT":"0.00000700","ARG_OF_PERICENTER":"72.9507","TLE_LINE1":"1 44923U 20001K   21302.69984388  .00000700  00000-0  65890-4 0  9997","COUNTRY_CODE":"US"},{"SITE":"AFETR","EPHEMERIS_TYPE":"0","TLE_LINE2":"2 44924  53.0546 293.3918 0005845  74.9106 285.2529 15.06424466 99898","ARG_OF_PERICENTER":"74.9106","MEAN_MOTION_DOT":"0.00003877","TLE_LINE1":"1 44924U 20001L   21302.68878578  .00003877  00000-0  27888-3 0  9992","COUNTRY_CODE":"US","SEMIMAJOR_AXIS":"6925.274","REV_AT_EPOCH":"9989","ELEMENT_SET_NO":"999","CLASSIFICATION_TYPE":"U","EPOCH":"2021-10-29T16:31:51.091392","RA_OF_ASC_NODE":"293.3918","BSTAR":"0.00027888000000","PERIOD":"95.591","DECAY_DATE":null,"REF_FRAME":"TEME","CENTER_NAME":"EARTH","NORAD_CAT_ID":"44924","RCS_SIZE":"LARGE","MEAN_MOTION_DDOT":"0.0000000000000","TIME_SYSTEM":"UTC","FILE":"3191844","MEAN_ELEMENT_THEORY":"SGP4","OBJECT_NAME":"STARLINK-1111","ECCENTRICITY":"0.00058450","INCLINATION":"53.0546","APOAPSIS":"551.186","LAUNCH_DATE":"2020-01-07","MEAN_ANOMALY":"285.2529","OBJECT_ID":"2020-001L","MEAN_MOTION":"15.06424466","PERIAPSIS":"543.091","GP_ID":"188465782","OBJECT_TYPE":"PAYLOAD"},{"PERIOD":"95.592","DECAY_DATE":null,"BSTAR":"0.00017092000000","CENTER_NAME":"EARTH","NORAD_CAT_ID":"44925","RCS_SIZE":"LARGE","REF_FRAME":"TEME","MEAN_MOTION_DOT":"0.00002266","ARG_OF_PERICENTER":"81.7246","COUNTRY_CODE":"US","TLE_LINE1":"1 44925U 20001M   21302.70353475  .00002266  00000-0  17092-3 0  9997","EPHEMERIS_TYPE":"0","SITE":"AFETR","TLE_LINE2":"2 44925  53.0535 293.3231 0001368  81.7246 278.3898 15.06404055 99896","RA_OF_ASC_NODE":"293.3231","SEMIMAJOR_AXIS":"6925.336","REV_AT_EPOCH":"9989","ELEMENT_SET_NO":"999","EPOCH":"2021-10-29T16:53:05.402400","CLASSIFICATION_TYPE":"U","MEAN_MOTION":"15.06404055","PERIAPSIS":"546.254","GP_ID":"188465529","OBJECT_TYPE":"PAYLOAD","LAUNCH_DATE":"2020-01-07","MEAN_ANOMALY":"278.3898","OBJECT_ID":"2020-001M","MEAN_ELEMENT_THEORY":"SGP4","FILE":"3191844","MEAN_MOTION_DDOT":"0.0000000000000","TIME_SYSTEM":"UTC","INCLINATION":"53.0535","APOAPSIS":"548.149","ECCENTRICITY":"0.00013680","OBJECT_NAME":"STARLINK-1112"},{"RA_OF_ASC_NODE":"294.7437","EPOCH":"2021-10-29T09:20:33.785952","CLASSIFICATION_TYPE":"U","SEMIMAJOR_AXIS":"6927.832","ELEMENT_SET_NO":"999","REV_AT_EPOCH":"10056","ARG_OF_PERICENTER":"78.2715","MEAN_MOTION_DOT":"0.00001446","TLE_LINE1":"1 44926U 20001N   21302.38927993  .00001446  00000-0  11838-3 0  9995","COUNTRY_CODE":"US","SITE":"AFETR","EPHEMERIS_TYPE":"0","TLE_LINE2":"2 44926  52.9986 294.7437 0001500  78.2715 281.8441 15.05590086100567","NORAD_CAT_ID":"44926","CENTER_NAME":"EARTH","RCS_SIZE":"LARGE","REF_FRAME":"TEME","PERIOD":"95.644","DECAY_DATE":null,"BSTAR":"0.00011838000000","INCLINATION":"52.9986","APOAPSIS":"550.736","OBJECT_NAME":"STARLINK-1113","ECCENTRICITY":"0.00015000","FILE":"3191650","MEAN_ELEMENT_THEORY":"SGP4","MEAN_MOTION_DDOT":"0.0000000000000","TIME_SYSTEM":"UTC","MEAN_MOTION":"15.05590086","OBJECT_TYPE":"PAYLOAD","GP_ID":"188442644","PERIAPSIS":"548.658","OBJECT_ID":"2020-001N","LAUNCH_DATE":"2020-01-07","MEAN_ANOMALY":"281.8441"},{"MEAN_ANOMALY":"281.1453","LAUNCH_DATE":"2020-01-07","OBJECT_ID":"2020-001P","MEAN_MOTION":"15.06396333","OBJECT_TYPE":"PAYLOAD","PERIAPSIS":"546.234","GP_ID":"188466529","OBJECT_NAME":"STARLINK-1114","ECCENTRICITY":"0.00014310","INCLINATION":"53.0540","APOAPSIS":"548.216","MEAN_MOTION_DDOT":"0.0000000000000","TIME_SYSTEM":"UTC","MEAN_ELEMENT_THEORY":"SGP4","FILE":"3191844","REF_FRAME":"TEME","NORAD_CAT_ID":"44927","CENTER_NAME":"EARTH","RCS_SIZE":"LARGE","BSTAR":"0.00006520100000","PERIOD":"95.592","DECAY_DATE":null,"CLASSIFICATION_TYPE":"U","EPOCH":"2021-10-29T17:09:00.352224","ELEMENT_SET_NO":"999","SEMIMAJOR_AXIS":"6925.360","REV_AT_EPOCH":"9990","RA_OF_ASC_NODE":"293.2736","EPHEMERIS_TYPE":"0","SITE":"AFETR","TLE_LINE2":"2 44927  53.0540 293.2736 0001431  78.9697 281.1453 15.06396333 99902","ARG_OF_PERICENTER":"78.9697","MEAN_MOTION_DOT":"0.00000690","COUNTRY_CODE":"US","TLE_LINE1":"1 44927U 20001P   21302.71458741  .00000690  00000-0  65201-4 0  9997"},{"MEAN_MOTION_DDOT":"0.0000000000000","TIME_SYSTEM":"UTC","FILE":"3191844","MEAN_ELEMENT_THEORY":"SGP4","ECCENTRICITY":"0.00014460","OBJECT_NAME":"STARLINK-1119","INCLINATION":"53.0553","APOAPSIS":"548.203","MEAN_ANOMALY":"285.6256","LAUNCH_DATE":"2020-01-07","OBJECT_ID":"2020-001Q","MEAN_MOTION":"15.06403768","PERIAPSIS":"546.201","GP_ID":"188465283","OBJECT_TYPE":"PAYLOAD","EPHEMERIS_TYPE":"0","SITE":"AFETR","TLE_LINE2":"2 44928  53.0553 293.2997 0001446  74.4893 285.6256 15.06403768 99902","ARG_OF_PERICENTER":"74.4893","MEAN_MOTION_DOT":"0.00001762","COUNTRY_CODE":"US","TLE_LINE1":"1 44928U 20001Q   21302.71089551  .00001762  00000-0  13713-3 0  9998","ELEMENT_SET_NO":"999","SEMIMAJOR_AXIS":"6925.337","REV_AT_EPOCH":"9990","CLASSIFICATION_TYPE":"U","EPOCH":"2021-10-29T17:03:41.372064","RA_OF_ASC_NODE":"293.2997","BSTAR":"0.00013713000000","PERIOD":"95.592","DECAY_DATE":null,"REF_FRAME":"TEME","CENTER_NAME":"EARTH","NORAD_CAT_ID":"44928","RCS_SIZE":"LARGE"},{"OBJECT_NAME":"STARLINK-1121","ECCENTRICITY":"0.00012530","APOAPSIS":"548.076","INCLINATION":"53.0533","TIME_SYSTEM":"UTC","MEAN_MOTION_DDOT":"0.0000000000000","MEAN_ELEMENT_THEORY":"SGP4","FILE":"3191844","LAUNCH_DATE":"2020-01-07","OBJECT_ID":"2020-001R","MEAN_ANOMALY":"279.9068","GP_ID":"188466029","PERIAPSIS":"546.341","OBJECT_TYPE":"PAYLOAD","MEAN_MOTION":"15.06401659","ELEMENT_SET_NO":"999","SEMIMAJOR_AXIS":"6925.343","REV_AT_EPOCH":"9989","CLASSIFICATION_TYPE":"U","EPOCH":"2021-10-29T16:42:28.274112","RA_OF_ASC_NODE":"293.3546","TLE_LINE2":"2 44929  53.0533 293.3546 0001253  80.2062 279.9068 15.06401659 99893","EPHEMERIS_TYPE":"0","SITE":"AFETR","COUNTRY_CODE":"US","TLE_LINE1":"1 44929U 20001R   21302.69616058  .00001072  00000-0  90813-4 0  9995","ARG_OF_PERICENTER":"80.2062","MEAN_MOTION_DOT":"0.00001072","REF_FRAME":"TEME","RCS_SIZE":"LARGE","CENTER_NAME":"EARTH","NORAD_CAT_ID":"44929","BSTAR":"0.00009081300000","DECAY_DATE":null,"PERIOD":"95.592"},{"FILE":"3191412","MEAN_ELEMENT_THEORY":"SGP4","MEAN_MOTION_DDOT":"0.0000000000000","TIME_SYSTEM":"UTC","INCLINATION":"53.0536","APOAPSIS":"548.197","OBJECT_NAME":"STARLINK-1123","ECCENTRICITY":"0.00014060","MEAN_MOTION":"15.06396775","OBJECT_TYPE":"PAYLOAD","GP_ID":"188433533","PERIAPSIS":"546.250","MEAN_ANOMALY":"277.0034","LAUNCH_DATE":"2020-01-07","OBJECT_ID":"2020-001S","MEAN_MOTION_DOT":"0.00000964","ARG_OF_PERICENTER":"83.1115","COUNTRY_CODE":"US","TLE_LINE1":"1 44930U 20001S   21302.46394841  .00000964  00000-0  83599-4 0  9997","SITE":"AFETR","EPHEMERIS_TYPE":"0","TLE_LINE2":"2 44930  53.0536 294.4101 0001406  83.1115 277.0034 15.06396775 99869","RA_OF_ASC_NODE":"294.4101","EPOCH":"2021-10-29T11:08:05.142624","CLASSIFICATION_TYPE":"U","SEMIMAJOR_AXIS":"6925.358","REV_AT_EPOCH":"9986","ELEMENT_SET_NO":"999","PERIOD":"95.592","DECAY_DATE":null,"BSTAR":"0.00008359900000","NORAD_CAT_ID":"44930","CENTER_NAME":"EARTH","RCS_SIZE":"LARGE","REF_FRAME":"TEME"},{"BSTAR":"0.00006116300000","DECAY_DATE":null,"PERIOD":"95.592","REF_FRAME":"TEME","RCS_SIZE":"LARGE","NORAD_CAT_ID":"44931","CENTER_NAME":"EARTH","TLE_LINE2":"2 44931  53.0539 293.3045 0001301  78.7295 281.3841 15.06404034100642","SITE":"AFETR","EPHEMERIS_TYPE":"0","COUNTRY_CODE":"US","TLE_LINE1":"1 44931U 20001T   21302.70721871  .00000630  00000-0  61163-4 0  9995","ARG_OF_PERICENTER":"78.7295","MEAN_MOTION_DOT":"0.00000630","EPOCH":"2021-10-29T16:58:23.696544","CLASSIFICATION_TYPE":"U","SEMIMAJOR_AXIS":"6925.336","ELEMENT_SET_NO":"999","REV_AT_EPOCH":"10064","RA_OF_ASC_NODE":"293.3045","LAUNCH_DATE":"2020-01-07","OBJECT_ID":"2020-001T","MEAN_ANOMALY":"281.3841","OBJECT_TYPE":"PAYLOAD","GP_ID":"188467029","PERIAPSIS":"546.300","MEAN_MOTION":"15.06404034","TIME_SYSTEM":"UTC","MEAN_MOTION_DDOT":"0.0000000000000","MEAN_ELEMENT_THEORY":"SGP4","FILE":"3191844","ECCENTRICITY":"0.00013010","OBJECT_NAME":"STARLINK-1128","APOAPSIS":"548.102","INCLINATION":"53.0539"},{"FILE":"3191412","MEAN_ELEMENT_THEORY":"SGP4","MEAN_MOTION_DDOT":"0.0000000000000","TIME_SYSTEM":"UTC","INCLINATION":"53.0539","APOAPSIS":"548.098","OBJECT_NAME":"STARLINK-1130","ECCENTRICITY":"0.00013100","MEAN_MOTION":"15.06407410","OBJECT_TYPE":"PAYLOAD","GP_ID":"188434035","PERIAPSIS":"546.284","OBJECT_ID":"2020-001U","LAUNCH_DATE":"2020-01-07","MEAN_ANOMALY":"288.6039","MEAN_MOTION_DOT":"0.00002444","ARG_OF_PERICENTER":"71.5093","COUNTRY_CODE":"US","TLE_LINE1":"1 44932U 20001U   21302.38653145  .00002444  00000-0  18288-3 0  9992","EPHEMERIS_TYPE":"0","SITE":"AFETR","TLE_LINE2":"2 44932  53.0539 294.7573 0001310  71.5093 288.6039 15.06407410101080","RA_OF_ASC_NODE":"294.7573","EPOCH":"2021-10-29T09:16:36.317280","CLASSIFICATION_TYPE":"U","ELEMENT_SET_NO":"999","SEMIMAJOR_AXIS":"6925.326","REV_AT_EPOCH":"10108","PERIOD":"95.592","DECAY_DATE":null,"BSTAR":"0.00018288000000","NORAD_CAT_ID":"44932","CENTER_NAME":"EARTH","RCS_SIZE":"LARGE","REF_FRAME":"TEME"}];
